NORAD_ID,Epoch_Time,Inclination_deg,RA_of_Asc_Node_deg,Eccentricity_e,Arg_of_Perigee_deg,Mean_Anomaly_deg,BSTAR,Mean_Motion_rev_day,TLE_Line_1,TLE_Line_2
43172,50:03.6,34.9973,259.8457,0.0002642,185.3747,174.6933,0.00046717,15.01458647,1 43172U 18011D   25337.95143076  .00006134  00000-0  46717-3 0  9995,2 43172  34.9973 259.8457 0002642 185.3747 174.6933 15.01458647428719
43172,37:18.9,34.9973,258.6322,0.0002679,187.3259,172.741,0.00054736,15.01462372,1 43172U 18011D   25338.15091337  .00007194  00000-0  54736-3 0  9997,2 43172  34.9973 258.6322 0002679 187.3259 172.7410 15.01462372428749
43172,13:04.0,34.9972,258.2277,0.0002687,187.8526,172.214,0.00055539,15.01463369,1 43172U 18011D   25338.21740758  .00007300  00000-0  55539-3 0  9993,2 43172  34.9972 258.2277 0002687 187.8526 172.2140 15.01463369428757
43172,36:04.3,34.9972,256.6097,0.0002736,190.0193,170.0461,0.00058458,15.01467911,1 43172U 18011D   25338.48338345  .00007687  00000-0  58458-3 0  9998,2 43172  34.9972 256.6097 0002736 190.0193 170.0461 15.01467911428793
43172,59:04.6,34.9971,254.9919,0.0002763,192.0465,168.0177,0.00056048,15.01470794,1 43172U 18011D   25338.74935912  .00007369  00000-0  56048-3 0  9990,2 43172  34.9971 254.9919 0002763 192.0465 168.0177 15.01470794428839
43172,10:34.7,34.997,254.1829,0.0002783,193.2468,166.8167,0.00056148,15.01472652,1 43172U 18011D   25338.88234660  .00007383  00000-0  56148-3 0  9994,2 43172  34.9970 254.1829 0002783 193.2468 166.8167 15.01472652428850
43174,04:38.7,1.0457,85.5583,0.0003888,180.4447,72.9324,0,1.00269903,1 43174U 18012A   25337.79489233 -.00000139  00000-0  00000-0 0  9990,2 43174   1.0457  85.5583 0003888 180.4447  72.9324  1.00269903 28880
43174,38:47.3,1.0466,85.5586,0.0003908,180.744,171.4368,0,1.00269865,1 43174U 18012A   25338.06860278 -.00000140  00000-0  00000+0 0  9994,2 43174   1.0466  85.5586 0003908 180.7440 171.4368  1.00269865 28882
43174,38:47.3,1.0466,85.5586,0.0003908,180.744,171.4368,0,1.00269865,1 43174U 18012A   25338.06860278 -.00000140  00000-0  00000-0 0  9995,2 43174   1.0466  85.5586 0003908 180.7440 171.4368  1.00269865 28882
43174,12:21.4,1.0477,85.5517,0.0003914,181.231,299.6982,0,1.00269823,1 43174U 18012A   25338.42524772 -.00000141  00000-0  00000+0 0  9991,2 43174   1.0477  85.5517 0003914 181.2310 299.6982  1.00269823 28897
43174,12:21.4,1.0477,85.5517,0.0003914,181.231,299.6982,0,1.00269823,1 43174U 18012A   25338.42524773 -.00000141  00000-0  00000-0 0  9993,2 43174   1.0477  85.5517 0003914 181.2310 299.6982  1.00269823 28897
43174,03:23.0,1.0484,85.5495,0.0003932,181.5593,42.4078,0,1.00269803,1 43174U 18012A   25338.71068256 -.00000142  00000-0  00000+0 0  9994,2 43174   1.0484  85.5495 0003932 181.5593  42.4078  1.00269803 28894
43175,57:05.4,0.0191,16.0614,0.0001212,222.422,41.0846,0,1.00270136,1 43175U 18012B   25337.70631226 -.00000261  00000-0  00000-0 0  9999,2 43175   0.0191  16.0614 0001212 222.4220  41.0846  1.00270136  5065
43175,16:38.9,0.0204,19.1681,0.0001229,220.7475,149.8415,0,1.00270025,1 43175U 18012B   25338.01156160 -.00000262  00000-0  00000+0 0  9993,2 43175   0.0204  19.1681 0001229 220.7475 149.8415  1.00270025  5065
43175,39:04.3,0.0174,11.8146,0.0001639,236.5602,237.2551,0,1.00278744,1 43175U 18012B   25338.27713353 -.00000263  00000-0  00000-0 0  9996,2 43175   0.0174  11.8146 0001639 236.5602 237.2551  1.00278744  5078
43175,21:47.0,0.0174,11.4335,0.0001534,237.0581,262.8867,0,1.00276838,1 43175U 18012B   25338.34846060 -.00000263  00000-0  00000+0 0  9995,2 43175   0.0174  11.4335 0001534 237.0581 262.8867  1.00276838  5076
43175,21:47.0,0.0174,11.4335,0.0001534,237.0581,262.8867,0,1.00276838,1 43175U 18012B   25338.34846061 -.00000263  00000-0  00000-0 0  9997,2 43175   0.0174  11.4335 0001534 237.0581 262.8867  1.00276838  5076
43175,38:14.6,0.0178,12.8604,0.0001226,229.5208,63.5292,0,1.00270775,1 43175U 18012B   25338.77655808 -.00000265  00000-0  00000+0 0  9992,2 43175   0.0178  12.8604 0001226 229.5208  63.5292  1.00270775  5076
43176,16:35.6,21.9857,35.3236,0.7484777,61.0924,352.92,0.0027491,2.03000126,1 43176U 18012C   25338.34485627  .00007949  00000-0  27491-2 0  9997,2 43176  21.9857  35.3236 7484777  61.0924 352.9200  2.03000126 55345
43176,16:35.6,21.9857,35.3236,0.7484777,61.0924,352.92,0.0027491,2.03000126,1 43176U 18012C   25338.34485628  .00007949  00000-0  27491-2 0  9998,2 43176  21.9857  35.3236 7484777  61.0924 352.9200  2.03000126 55345
43179,54:50.0,23.5121,184.3697,0.7187418,142.0064,301.5767,0.0017275,2.41050828,1 43179U 18013B   25338.41307866  .00010337  00000-0  17275-2 0  9991,2 43179  23.5121 184.3697 7187418 142.0064 301.5767  2.41050828 49711
43179,54:50.0,23.5121,184.3697,0.7187418,142.0064,301.5767,0.0017275,2.41050828,1 43179U 18013B   25338.41307866  .00010337  00000-0  17275-2 0  9991,2 43179  23.5121 184.3697 7187418 142.0064 301.5767  2.41050828 49711
43180,26:58.6,97.3689,242.2996,0.0001963,86.7865,273.3597,0.00030206,15.2345937,1 43180U 18014A   25338.01873418  .00007132  00000-0  30206-3 0  9990,2 43180  97.3689 242.2996 0001963  86.7865 273.3597 15.23459370435011
43180,10:43.4,97.3689,242.4931,0.0001961,86.4801,273.666,0.00033034,15.23463165,1 43180U 18014A   25338.21578065  .00007807  00000-0  33034-3 0  9993,2 43180  97.3689 242.4931 0001961  86.4801 273.6660 15.23463165435041
43180,19:53.3,97.369,242.6221,0.0001965,86.4996,273.6466,0.00034642,15.23464931,1 43180U 18014A   25338.34714478  .00008192  00000-0  34642-3 0  9991,2 43180  97.3690 242.6221 0001965  86.4996 273.6466 15.23464931435064
43180,12:47.9,97.369,242.9446,0.0001967,86.3541,273.7921,0.00032792,15.23469107,1 43180U 18014A   25338.67555442  .00007751  00000-0  32792-3 0  9995,2 43180  97.3690 242.9446 0001967  86.3541 273.7921 15.23469107435116
43180,47:22.8,97.369,243.0091,0.0001967,86.3762,273.77,0.00032399,15.23470017,1 43180U 18014A   25338.74123620  .00007657  00000-0  32399-3 0  9990,2 43180  97.3690 243.0091 0001967  86.3762 273.7700 15.23470017435127
43180,56:32.6,97.369,243.1381,0.0001971,86.6309,273.5153,0.00032141,15.23471867,1 43180U 18014A   25338.87259963  .00007596  00000-0  32141-3 0  9991,2 43180  97.3690 243.1381 0001971  86.6309 273.5153 15.23471867435141
43181,04:54.8,97.3697,242.3381,0.00018,89.1894,270.955,0.00021996,15.23453778,1 43181U 18014B   25337.92007890  .00005172  00000-0  21996-3 0  9991,2 43181  97.3697 242.3381 0001800  89.1894 270.9550 15.23453778435017
43181,23:14.6,97.3698,242.596,0.0001817,88.9809,271.1636,0.00027421,15.23459299,1 43181U 18014B   25338.18280792  .00006467  00000-0  27421-3 0  9991,2 43181  97.3698 242.5960 0001817  88.9809 271.1636 15.23459299435050
43181,32:24.5,97.3699,242.7249,0.0001838,89.0142,271.1305,0.00028123,15.23461479,1 43181U 18014B   25338.31417213  .00006635  00000-0  28123-3 0  9993,2 43181  97.3699 242.7249 0001838  89.0142 271.1305 15.23461479435076
43181,25:19.1,97.3699,243.0475,0.000184,88.7941,271.3507,0.00030322,15.23465878,1 43181U 18014B   25338.64258234  .00007161  00000-0  30322-3 0  9994,2 43181  97.3699 243.0475 0001840  88.7941 271.3507 15.23465878435126
43181,34:28.9,97.3699,243.1765,0.0001837,89.0638,271.081,0.00030718,15.23467878,1 43181U 18014B   25338.77394612  .00007255  00000-0  30718-3 0  9992,2 43181  97.3699 243.1765 0001837  89.0638 271.0810 15.23467878435140
43181,34:28.9,97.3699,243.1765,0.0001837,89.035,271.1098,0.00030682,15.23467879,1 43181U 18014B   25338.77394612  .00007247  00000-0  30682-3 0  9993,2 43181  97.3699 243.1765 0001837  89.0350 271.1098 15.23467879435141
43181,09:03.9,97.3699,243.241,0.0001839,89.129,271.0158,0.00030892,15.23468796,1 43181U 18014B   25338.83962799  .00007297  00000-0  30892-3 0  9995,2 43181  97.3699 243.2410 0001839  89.1290 271.0158 15.23468796435151
43182,38:52.4,97.5508,256.3263,0.0002196,259.6877,100.4129,0.0014985,15.53623522,1 43182U 18014C   25337.69366171  .00096488  00000-0  14985-2 0  9995,2 43182  97.5508 256.3263 0002196 259.6877 100.4129 15.53623522430461
43182,33:33.9,97.5513,256.9372,0.0002271,256.8684,103.2316,0.0019304,15.53755172,1 43182U 18014C   25338.27330941  .00125373  00000-0  19304-2 0  9992,2 43182  97.5513 256.9372 0002271 256.8684 103.2316 15.53755172430559
43182,33:33.9,97.5513,256.9372,0.0002271,256.8684,103.2316,0.0019304,15.53755172,1 43182U 18014C   25338.27330942  .00125373  00000-0  19304-2 0  9993,2 43182  97.5513 256.9372 0002271 256.8684 103.2316 15.53755172430559
43184,21:39.1,97.4906,253.4587,0.0001515,207.4895,152.6276,0.0017712,15.49576458,1 43184U 18014E   25338.30670199  .00098789  00000-0  17712-2 0  9991,2 43184  97.4906 253.4587 0001515 207.4895 152.6276 15.49576458430558
43184,00:36.9,97.4907,253.6596,0.0001605,205.1155,155.0018,0.0018211,15.49613737,1 43184U 18014E   25338.50042757  .00101747  00000-0  18211-2 0  9990,2 43184  97.4907 253.6596 0001605 205.1155 155.0018 15.49613737430581
43184,39:34.5,97.4908,253.8606,0.0001655,202.7213,157.3965,0.0016426,15.49650611,1 43184U 18014E   25338.69414875  .00091770  00000-0  16426-2 0  9994,2 43184  97.4908 253.8606 0001655 202.7213 157.3965 15.49650611430611
43186,49:26.2,97.549,238.8625,0.0008339,347.6177,12.4848,0.00051883,15.14165922,1 43186U 18014G   25337.70099783  .00009409  00000-0  51883-3 0  9999,2 43186  97.5490 238.8625 0008339 347.6177  12.4848 15.14165922429154
43186,05:53.4,97.5491,239.4522,0.0008284,345.2699,14.829,0.00076326,15.14185148,1 43186U 18014G   25338.29575694  .00013889  00000-0  76326-3 0  9990,2 43186  97.5491 239.4522 0008284 345.2699  14.8290 15.14185148429249
43186,01:41.6,97.5491,239.7799,0.0008279,343.9831,16.1138,0.00076541,15.14193049,1 43186U 18014G   25338.62617606  .00013931  00000-0  76541-3 0  9994,2 43186  97.5491 239.7799 0008279 343.9831  16.1138 15.14193049429295
43186,36:51.2,97.5491,239.8455,0.0008266,343.5968,16.4995,0.00079886,15.14194984,1 43186U 18014G   25338.69225969  .00014545  00000-0  79886-3 0  9995,2 43186  97.5491 239.8455 0008266 343.5968  16.4995 15.14194984429303
